SL-3 R/B                
1 13403U 82079B   25327.43601625  .00005257  00000+0  21859-3 0  9999
2 13403  81.1461 318.4121 0026029 161.8099 198.4071 15.23283233361515
SL-14 R/B               
1 13553U 82092B   25327.30564108  .00000639  00000+0  69286-4 0  9996
2 13553  82.5689 240.8846 0018969 296.6539 183.1178 14.86525326313123
SL-3 R/B                
1 13819U 83010B   25327.44798771  .00013465  00000+0  30548-3 0  9991
2 13819  81.1026 132.1537 0018083  57.5250 302.7737 15.42751518341543
SL-3 R/B                
1 14208U 83075B   25327.43694304  .00011051  00000+0  31951-3 0  9999
2 14208  97.6101 323.2808 0020983 247.6938 112.2080 15.35593144313830
COSMOS 1536             
1 14699U 84013A   25327.15320727  .00006369  00000+0  27523-3 0  9996
2 14699  82.5468 213.5818 0013537 302.6788  57.3142 15.22215313256409
SL-14 R/B               
1 14820U 84027B   25327.43016715  .00000511  00000+0  55868-4 0  9994
2 14820  82.5415 344.6664 0017135 329.9582  30.0649 14.85844237231857
SL-8 R/B                
1 15483U 85006B   25327.40615411  .00000325  00000+0  11647-3 0  9992
2 15483  74.0450  96.7036 0017889  34.7287  20.5662 14.37703636138753
SL-12 R/B(2)            
1 15772U 85042D   25327.40935328  .00000038  00000+0  38702-4 0  9998
2 15772  71.1077 312.2581 0037554 289.7887 177.3314 14.21942785 99289
SL-14 R/B               
1 15945U 85069B   25327.44718740  .00000670  00000+0  73146-4 0  9993
2 15945  82.5248 124.8403 0018785 179.8821 180.2404 14.86289904157050
SL-16 R/B               
1 16182U 85097B   25327.43852868  .00000198  00000+0  12345-3 0  9995
2 16182  71.0041   4.2389 0005651  45.1603  52.3222 14.16581474 72180
SL-14 R/B               
1 16496U 86006B   25327.18081669  .00000758  00000+0  78478-4 0  9991
2 16496  82.5276 359.9556 0075190 265.6811  93.5812 14.86632463133380
COSMOS 1743             
1 16719U 86034A   25327.11130977  .00022956  00000+0  39649-3 0  9990
2 16719  82.5354 184.9559 0005821 340.2095  19.8930 15.50831427163694
