CCSDS_OMM_VERS = 2.0
CREATION_DATE  = 
ORIGINATOR     = 

OBJECT_NAME    = SL-3 R/B
OBJECT_ID      = 1982-079B
CENTER_NAME    = EARTH
REF_FRAME      = TEME
TIME_SYSTEM    = UTC
MEAN_ELEMENT_THEORY = SGP/SGP4

EPOCH          = 2025-11-23T10:27:51.804000
MEAN_MOTION    = 15.23283233
ECCENTRICITY   = .0026029
INCLINATION    = 81.1461
RA_OF_ASC_NODE = 318.4121
ARG_OF_PERICENTER = 161.8099
MEAN_ANOMALY   = 198.4071

EPHEMERIS_TYPE = 0
CLASSIFICATION_TYPE = U
NORAD_CAT_ID   = 13403
ELEMENT_SET_NO = 999
REV_AT_EPOCH   = 36151
BSTAR          = .21859E-3
MEAN_MOTION_DOT = .5257E-4
MEAN_MOTION_DDOT = 0

CCSDS_OMM_VERS = 2.0
CREATION_DATE  = 
ORIGINATOR     = 

OBJECT_NAME    = SL-14 R/B
OBJECT_ID      = 1982-092B
CENTER_NAME    = EARTH
REF_FRAME      = TEME
TIME_SYSTEM    = UTC
MEAN_ELEMENT_THEORY = SGP/SGP4

EPOCH          = 2025-11-23T07:20:07.389312
MEAN_MOTION    = 14.86525326
ECCENTRICITY   = .0018969
INCLINATION    = 82.5689
RA_OF_ASC_NODE = 240.8846
ARG_OF_PERICENTER = 296.6539
MEAN_ANOMALY   = 183.1178

EPHEMERIS_TYPE = 0
CLASSIFICATION_TYPE = U
NORAD_CAT_ID   = 13553
ELEMENT_SET_NO = 999
REV_AT_EPOCH   = 31312
BSTAR          = .69286E-4
MEAN_MOTION_DOT = .639E-5
MEAN_MOTION_DDOT = 0

CCSDS_OMM_VERS = 2.0
CREATION_DATE  = 
ORIGINATOR     = 

OBJECT_NAME    = SL-3 R/B
OBJECT_ID      = 1983-010B
CENTER_NAME    = EARTH
REF_FRAME      = TEME
TIME_SYSTEM    = UTC
MEAN_ELEMENT_THEORY = SGP/SGP4

EPOCH          = 2025-11-23T10:45:06.138144
MEAN_MOTION    = 15.42751518
ECCENTRICITY   = .0018083
INCLINATION    = 81.1026
RA_OF_ASC_NODE = 132.1537
ARG_OF_PERICENTER = 57.5250
MEAN_ANOMALY   = 302.7737

EPHEMERIS_TYPE = 0
CLASSIFICATION_TYPE = U
NORAD_CAT_ID   = 13819
ELEMENT_SET_NO = 999
REV_AT_EPOCH   = 34154
BSTAR          = .30548E-3
MEAN_MOTION_DOT = .13465E-3
MEAN_MOTION_DDOT = 0

CCSDS_OMM_VERS = 2.0
CREATION_DATE  = 
ORIGINATOR     = 

OBJECT_NAME    = SL-3 R/B
OBJECT_ID      = 1983-075B
CENTER_NAME    = EARTH
REF_FRAME      = TEME
TIME_SYSTEM    = UTC
MEAN_ELEMENT_THEORY = SGP/SGP4

EPOCH          = 2025-11-23T10:29:11.878656
MEAN_MOTION    = 15.35593144
ECCENTRICITY   = .0020983
INCLINATION    = 97.6101
RA_OF_ASC_NODE = 323.2808
ARG_OF_PERICENTER = 247.6938
MEAN_ANOMALY   = 112.2080

EPHEMERIS_TYPE = 0
CLASSIFICATION_TYPE = U
NORAD_CAT_ID   = 14208
ELEMENT_SET_NO = 999
REV_AT_EPOCH   = 31383
BSTAR          = .31951E-3
MEAN_MOTION_DOT = .11051E-3
MEAN_MOTION_DDOT = 0

CCSDS_OMM_VERS = 2.0
CREATION_DATE  = 
ORIGINATOR     = 

OBJECT_NAME    = COSMOS 1536
OBJECT_ID      = 1984-013A
CENTER_NAME    = EARTH
REF_FRAME      = TEME
TIME_SYSTEM    = UTC
MEAN_ELEMENT_THEORY = SGP/SGP4

EPOCH          = 2025-11-23T03:40:37.108128
MEAN_MOTION    = 15.22215313
ECCENTRICITY   = .0013537
INCLINATION    = 82.5468
RA_OF_ASC_NODE = 213.5818
ARG_OF_PERICENTER = 302.6788
MEAN_ANOMALY   = 57.3142

EPHEMERIS_TYPE = 0
CLASSIFICATION_TYPE = U
NORAD_CAT_ID   = 14699
ELEMENT_SET_NO = 999
REV_AT_EPOCH   = 25640
BSTAR          = .27523E-3
MEAN_MOTION_DOT = .6369E-4
MEAN_MOTION_DDOT = 0

CCSDS_OMM_VERS = 2.0
CREATION_DATE  = 
ORIGINATOR     = 

OBJECT_NAME    = SL-14 R/B
OBJECT_ID      = 1984-027B
CENTER_NAME    = EARTH
REF_FRAME      = TEME
TIME_SYSTEM    = UTC
MEAN_ELEMENT_THEORY = SGP/SGP4

EPOCH          = 2025-11-23T10:19:26.441760
MEAN_MOTION    = 14.85844237
ECCENTRICITY   = .0017135
INCLINATION    = 82.5415
RA_OF_ASC_NODE = 344.6664
ARG_OF_PERICENTER = 329.9582
MEAN_ANOMALY   = 30.0649

EPHEMERIS_TYPE = 0
CLASSIFICATION_TYPE = U
NORAD_CAT_ID   = 14820
ELEMENT_SET_NO = 999
REV_AT_EPOCH   = 23185
BSTAR          = .55868E-4
MEAN_MOTION_DOT = .511E-5
MEAN_MOTION_DDOT = 0

CCSDS_OMM_VERS = 2.0
CREATION_DATE  = 
ORIGINATOR     = 

OBJECT_NAME    = SL-8 R/B
OBJECT_ID      = 1985-006B
CENTER_NAME    = EARTH
REF_FRAME      = TEME
TIME_SYSTEM    = UTC
MEAN_ELEMENT_THEORY = SGP/SGP4

EPOCH          = 2025-11-23T09:44:51.715104
MEAN_MOTION    = 14.37703636
ECCENTRICITY   = .0017889
INCLINATION    = 74.0450
RA_OF_ASC_NODE = 96.7036
ARG_OF_PERICENTER = 34.7287
MEAN_ANOMALY   = 20.5662

EPHEMERIS_TYPE = 0
CLASSIFICATION_TYPE = U
NORAD_CAT_ID   = 15483
ELEMENT_SET_NO = 999
REV_AT_EPOCH   = 13875
BSTAR          = .11647E-3
MEAN_MOTION_DOT = .325E-5
MEAN_MOTION_DDOT = 0

CCSDS_OMM_VERS = 2.0
CREATION_DATE  = 
ORIGINATOR     = 

OBJECT_NAME    = SL-12 R/B(2)
OBJECT_ID      = 1985-042D
CENTER_NAME    = EARTH
REF_FRAME      = TEME
TIME_SYSTEM    = UTC
MEAN_ELEMENT_THEORY = SGP/SGP4

EPOCH          = 2025-11-23T09:49:28.123392
MEAN_MOTION    = 14.21942785
ECCENTRICITY   = .0037554
INCLINATION    = 71.1077
RA_OF_ASC_NODE = 312.2581
ARG_OF_PERICENTER = 289.7887
MEAN_ANOMALY   = 177.3314

EPHEMERIS_TYPE = 0
CLASSIFICATION_TYPE = U
NORAD_CAT_ID   = 15772
ELEMENT_SET_NO = 999
REV_AT_EPOCH   = 9928
BSTAR          = .38702E-4
MEAN_MOTION_DOT = .38E-6
MEAN_MOTION_DDOT = 0

CCSDS_OMM_VERS = 2.0
CREATION_DATE  = 
ORIGINATOR     = 

OBJECT_NAME    = SL-14 R/B
OBJECT_ID      = 1985-069B
CENTER_NAME    = EARTH
REF_FRAME      = TEME
TIME_SYSTEM    = UTC
MEAN_ELEMENT_THEORY = SGP/SGP4

EPOCH          = 2025-11-23T10:43:56.991360
MEAN_MOTION    = 14.86289904
ECCENTRICITY   = .0018785
INCLINATION    = 82.5248
RA_OF_ASC_NODE = 124.8403
ARG_OF_PERICENTER = 179.8821
MEAN_ANOMALY   = 180.2404

EPHEMERIS_TYPE = 0
CLASSIFICATION_TYPE = U
NORAD_CAT_ID   = 15945
ELEMENT_SET_NO = 999
REV_AT_EPOCH   = 15705
BSTAR          = .73146E-4
MEAN_MOTION_DOT = .67E-5
MEAN_MOTION_DDOT = 0

CCSDS_OMM_VERS = 2.0
CREATION_DATE  = 
ORIGINATOR     = 

OBJECT_NAME    = SL-16 R/B
OBJECT_ID      = 1985-097B
CENTER_NAME    = EARTH
REF_FRAME      = TEME
TIME_SYSTEM    = UTC
MEAN_ELEMENT_THEORY = SGP/SGP4

EPOCH          = 2025-11-23T10:31:28.877952
MEAN_MOTION    = 14.16581474
ECCENTRICITY   = .0005651
INCLINATION    = 71.0041
RA_OF_ASC_NODE = 4.2389
ARG_OF_PERICENTER = 45.1603
MEAN_ANOMALY   = 52.3222

EPHEMERIS_TYPE = 0
CLASSIFICATION_TYPE = U
NORAD_CAT_ID   = 16182
ELEMENT_SET_NO = 999
REV_AT_EPOCH   = 7218
BSTAR          = .12345E-3
MEAN_MOTION_DOT = .198E-5
MEAN_MOTION_DDOT = 0

CCSDS_OMM_VERS = 2.0
CREATION_DATE  = 
ORIGINATOR     = 

OBJECT_NAME    = SL-14 R/B
OBJECT_ID      = 1986-006B
CENTER_NAME    = EARTH
REF_FRAME      = TEME
TIME_SYSTEM    = UTC
MEAN_ELEMENT_THEORY = SGP/SGP4

EPOCH          = 2025-11-23T04:20:22.562016
MEAN_MOTION    = 14.86632463
ECCENTRICITY   = .007519
INCLINATION    = 82.5276
RA_OF_ASC_NODE = 359.9556
ARG_OF_PERICENTER = 265.6811
MEAN_ANOMALY   = 93.5812

EPHEMERIS_TYPE = 0
CLASSIFICATION_TYPE = U
NORAD_CAT_ID   = 16496
ELEMENT_SET_NO = 999
REV_AT_EPOCH   = 13338
BSTAR          = .78478E-4
MEAN_MOTION_DOT = .758E-5
MEAN_MOTION_DDOT = 0

CCSDS_OMM_VERS = 2.0
CREATION_DATE  = 
ORIGINATOR     = 

OBJECT_NAME    = COSMOS 1743
OBJECT_ID      = 1986-034A
CENTER_NAME    = EARTH
REF_FRAME      = TEME
TIME_SYSTEM    = UTC
MEAN_ELEMENT_THEORY = SGP/SGP4

EPOCH          = 2025-11-23T02:40:17.164128
MEAN_MOTION    = 15.50831427
ECCENTRICITY   = .0005821
INCLINATION    = 82.5354
RA_OF_ASC_NODE = 184.9559
ARG_OF_PERICENTER = 340.2095
MEAN_ANOMALY   = 19.8930

EPHEMERIS_TYPE = 0
CLASSIFICATION_TYPE = U
NORAD_CAT_ID   = 16719
ELEMENT_SET_NO = 999
REV_AT_EPOCH   = 16369
BSTAR          = .39649E-3
MEAN_MOTION_DOT = .22956E-3
MEAN_MOTION_DDOT = 0

